{"fetched_at":"2026-07-19T07:04:49.137Z","source":"https://celestrak.org/NORAD/elements/gp.php?GROUP=oneweb&FORMAT=JSON","constellation":"oneweb","records":[{"OBJECT_NAME":"ONEWEB-0056","OBJECT_ID":"2020-008AE","EPOCH":"2026-07-18T12:19:01.130592","CLASSIFICATION_TYPE":"U","MEAN_MOTION":13.10374317,"ECCENTRICITY":0.00020671,"INCLINATION":87.8824,"RA_OF_ASC_NODE":30.0189,"ARG_OF_PERICENTER":83.518,"MEAN_ANOMALY":276.6183,"EPHEMERIS_TYPE":0,"NORAD_CAT_ID":45159,"ELEMENT_SET_NO":999,"REV_AT_EPOCH":31228,"BSTAR":0.001682748,"MEAN_MOTION_DOT":0.000006,"MEAN_MOTION_DDOT":0},{"OBJECT_NAME":"ONEWEB-0057","OBJECT_ID":"2020-008AF","EPOCH":"2026-07-18T12:43:51.369024","CLASSIFICATION_TYPE":"U","MEAN_MOTION":13.10369569,"ECCENTRICITY":0.00014672,"INCLINATION":87.8816,"RA_OF_ASC_NODE":30.027,"ARG_OF_PERICENTER":74.5313,"MEAN_ANOMALY":285.5976,"EPHEMERIS_TYPE":0,"NORAD_CAT_ID":45160,"ELEMENT_SET_NO":999,"REV_AT_EPOCH":31245,"BSTAR":0.0010531548,"MEAN_MOTION_DOT":0.0000038,"MEAN_MOTION_DDOT":0},{"OBJECT_NAME":"ONEWEB-0058","OBJECT_ID":"2020-008AG","EPOCH":"2026-07-18T12:24:38.886336","CLASSIFICATION_TYPE":"U","MEAN_MOTION":13.10468681,"ECCENTRICITY":0.00018183,"INCLINATION":87.8812,"RA_OF_ASC_NODE":30.0326,"ARG_OF_PERICENTER":98.1878,"MEAN_ANOMALY":261.9455,"EPHEMERIS_TYPE":0,"NORAD_CAT_ID":45161,"ELEMENT_SET_NO":999,"REV_AT_EPOCH":31252,"BSTAR":0.032917041,"MEAN_MOTION_DOT":0.00011534,"MEAN_MOTION_DDOT":0},{"OBJECT_NAME":"ONEWEB-0059","OBJECT_ID":"2020-008AH","EPOCH":"2026-07-18T06:49:35.324832","CLASSIFICATION_TYPE":"U","MEAN_MOTION":13.10374886,"ECCENTRICITY":0.0001582,"INCLINATION":87.8817,"RA_OF_ASC_NODE":30.0794,"ARG_OF_PERICENTER":88.269,"MEAN_ANOMALY":271.8619,"EPHEMERIS_TYPE":0,"NORAD_CAT_ID":45162,"ELEMENT_SET_NO":999,"REV_AT_EPOCH":31239,"BSTAR":0.0014078945,"MEAN_MOTION_DOT":0.00000504,"MEAN_MOTION_DDOT":0},{"OBJECT_NAME":"ONEWEB-0062","OBJECT_ID":"2020-008AJ","EPOCH":"2026-07-18T12:53:13.715520","CLASSIFICATION_TYPE":"U","MEAN_MOTION":13.10369084,"ECCENTRICITY":0.00020888,"INCLINATION":87.8818,"RA_OF_ASC_NODE":30.0188,"ARG_OF_PERICENTER":94.2087,"MEAN_ANOMALY":265.9279,"EPHEMERIS_TYPE":0,"NORAD_CAT_ID":45163,"ELEMENT_SET_NO":999,"REV_AT_EPOCH":31229,"BSTAR":0.0002112713,"MEAN_MOTION_DOT":8.6e-7,"MEAN_MOTION_DDOT":0},{"OBJECT_NAME":"ONEWEB-0065","OBJECT_ID":"2020-008AK","EPOCH":"2026-07-18T11:52:06.747456","CLASSIFICATION_TYPE":"U","MEAN_MOTION":13.10375223,"ECCENTRICITY":0.00017623,"INCLINATION":87.8823,"RA_OF_ASC_NODE":30.0351,"ARG_OF_PERICENTER":78.1824,"MEAN_ANOMALY":281.9501,"EPHEMERIS_TYPE":0,"NORAD_CAT_ID":45164,"ELEMENT_SET_NO":999,"REV_AT_EPOCH":31198,"BSTAR":-0.0011833626,"MEAN_MOTION_DOT":-0.000004,"MEAN_MOTION_DDOT":0},{"OBJECT_NAME":"ONEWEB-0066","OBJECT_ID":"2020-020A","EPOCH":"2026-07-18T17:36:16.655040","CLASSIFICATION_TYPE":"U","MEAN_MOTION":13.1141967,"ECCENTRICITY":0.0001742,"INCLINATION":87.8884,"RA_OF_ASC_NODE":14.7885,"ARG_OF_PERICENTER":95.845,"MEAN_ANOMALY":264.2877,"EPHEMERIS_TYPE":0,"NORAD_CAT_ID":45424,"ELEMENT_SET_NO":999,"REV_AT_EPOCH":30681,"BSTAR":-0.00073203,"MEAN_MOTION_DOT":-0.00000247,"MEAN_MOTION_DDOT":0},{"OBJECT_NAME":"ONEWEB-0067","OBJECT_ID":"2020-020B","EPOCH":"2026-07-18T00:11:56.226624","CLASSIFICATION_TYPE":"U","MEAN_MOTION":13.11426811,"ECCENTRICITY":0.00017089,"INCLINATION":87.8907,"RA_OF_ASC_NODE":14.861,"ARG_OF_PERICENTER":86.7762,"MEAN_ANOMALY":273.3561,"EPHEMERIS_TYPE":0,"NORAD_CAT_ID":45425,"ELEMENT_SET_NO":999,"REV_AT_EPOCH":30677,"BSTAR":0.0010255604,"MEAN_MOTION_DOT":0.00000376,"MEAN_MOTION_DDOT":0},{"OBJECT_NAME":"ONEWEB-0080","OBJECT_ID":"2020-020C","EPOCH":"2026-07-18T11:10:47.465760","CLASSIFICATION_TYPE":"U","MEAN_MOTION":13.11417721,"ECCENTRICITY":0.00020884,"INCLINATION":87.8898,"RA_OF_ASC_NODE":14.8415,"ARG_OF_PERICENTER":98.0703,"MEAN_ANOMALY":262.0662,"EPHEMERIS_TYPE":0,"NORAD_CAT_ID":45426,"ELEMENT_SET_NO":999,"REV_AT_EPOCH":30680,"BSTAR":0.0010353772,"MEAN_MOTION_DOT":0.0000038,"MEAN_MOTION_DDOT":0},{"OBJECT_NAME":"ONEWEB-0090","OBJECT_ID":"2020-020D","EPOCH":"2026-07-18T10:02:24.535392","CLASSIFICATION_TYPE":"U","MEAN_MOTION":13.11415674,"ECCENTRICITY":0.00019309,"INCLINATION":87.8896,"RA_OF_ASC_NODE":14.8552,"ARG_OF_PERICENTER":91.7701,"MEAN_ANOMALY":268.3648,"EPHEMERIS_TYPE":0,"NORAD_CAT_ID":45427,"ELEMENT_SET_NO":999,"REV_AT_EPOCH":30676,"BSTAR":0.00021056545,"MEAN_MOTION_DOT":8.7e-7,"MEAN_MOTION_DDOT":0},{"OBJECT_NAME":"ONEWEB-0061","OBJECT_ID":"2020-020E","EPOCH":"2026-07-18T10:48:23.305536","CLASSIFICATION_TYPE":"U","MEAN_MOTION":13.11418599,"ECCENTRICITY":0.00018278,"INCLINATION":87.8893,"RA_OF_ASC_NODE":14.833,"ARG_OF_PERICENTER":92.3513,"MEAN_ANOMALY":267.7824,"EPHEMERIS_TYPE":0,"NORAD_CAT_ID":45428,"ELEMENT_SET_NO":999,"REV_AT_EPOCH":30672,"BSTAR":-0.00090961279,"MEAN_MOTION_DOT":-0.0000031,"MEAN_MOTION_DDOT":0},{"OBJECT_NAME":"ONEWEB-0081","OBJECT_ID":"2020-020F","EPOCH":"2026-07-18T17:41:12.147360","CLASSIFICATION_TYPE":"U","MEAN_MOTION":13.11415353,"ECCENTRICITY":0.000163,"INCLINATION":87.889,"RA_OF_ASC_NODE":14.7852,"ARG_OF_PERICENTER":91.9706,"MEAN_ANOMALY":268.1609,"EPHEMERIS_TYPE":0,"NORAD_CAT_ID":45429,"ELEMENT_SET_NO":999,"REV_AT_EPOCH":30687,"BSTAR":-0.0011932,"MEAN_MOTION_DOT":-0.0000041,"MEAN_MOTION_DDOT":0},{"OBJECT_NAME":"ONEWEB-0069","OBJECT_ID":"2020-020G","EPOCH":"2026-07-18T17:43:49.664064","CLASSIFICATION_TYPE":"U","MEAN_MOTION":13.11418089,"ECCENTRICITY":0.000165,"INCLINATION":87.8892,"RA_OF_ASC_NODE":14.7882,"ARG_OF_PERICENTER":94.9845,"MEAN_ANOMALY":265.1471,"EPHEMERIS_TYPE":0,"NORAD_CAT_ID":45430,"ELEMENT_SET_NO":999,"REV_AT_EPOCH":30680,"BSTAR":-0.0012109,"MEAN_MOTION_DOT":-0.00000416,"MEAN_MOTION_DDOT":0},{"OBJECT_NAME":"ONEWEB-0031","OBJECT_ID":"2020-020H","EPOCH":"2026-07-18T18:34:56.955648","CLASSIFICATION_TYPE":"U","MEAN_MOTION":13.11419384,"ECCENTRICITY":0.0002009,"INCLINATION":87.8882,"RA_OF_ASC_NODE":14.7837,"ARG_OF_PERICENTER":94.2328,"MEAN_ANOMALY":265.9029,"EPHEMERIS_TYPE":0,"NORAD_CAT_ID":45431,"ELEMENT_SET_NO":999,"REV_AT_EPOCH":30679,"BSTAR":0.00087791,"MEAN_MOTION_DOT":0.00000324,"MEAN_MOTION_DDOT":0},{"OBJECT_NAME":"ONEWEB-0027","OBJECT_ID":"2020-020J","EPOCH":"2026-07-18T04:00:32.649120","CLASSIFICATION_TYPE":"U","MEAN_MOTION":13.17651072,"ECCENTRICITY":0.00022914,"INCLINATION":87.9149,"RA_OF_ASC_NODE":359.7024,"ARG_OF_PERICENTER":92.4712,"MEAN_ANOMALY":267.6682,"EPHEMERIS_TYPE":0,"NORAD_CAT_ID":45432,"ELEMENT_SET_NO":999,"REV_AT_EPOCH":31043,"BSTAR":-0.0004165245,"MEAN_MOTION_DOT":-0.00000149,"MEAN_MOTION_DDOT":0},{"OBJECT_NAME":"ONEWEB-0064","OBJECT_ID":"2020-020K","EPOCH":"2026-07-18T18:32:29.364576","CLASSIFICATION_TYPE":"U","MEAN_MOTION":13.11418347,"ECCENTRICITY":0.0002014,"INCLINATION":87.8889,"RA_OF_ASC_NODE":14.7772,"ARG_OF_PERICENTER":91.5964,"MEAN_ANOMALY":268.5395,"EPHEMERIS_TYPE":0,"NORAD_CAT_ID":45433,"ELEMENT_SET_NO":999,"REV_AT_EPOCH":30682,"BSTAR":0.0008369,"MEAN_MOTION_DOT":0.00000309,"MEAN_MOTION_DDOT":0}]}
